*******************************************************************************
Ephemeris / WWW_USER Mon Mar 24 09:35:15 2025 Pasadena, USA      / Horizons    
*******************************************************************************
Target body name: (2018 KH3)                      {source: JPL#10}
Center body name: Earth (399)                     {source: DE441}
Center-site name: Mauna Kea
*******************************************************************************
Start time      : A.D. 2018-Sep-03 04:45:00.0000 UT      
Stop  time      : A.D. 2018-Sep-03 15:57:00.0000 UT      
Step-size       : 1 minutes
*******************************************************************************
Target pole/equ : undefined
Target radii    : undefined                                                    
Center geodetic : 204.5278, 19.8260847, 4.21024   {E-lon(deg),Lat(deg),Alt(km)}
Center cylindric: 204.5278, 6006.35451, 2151.0229 {E-lon(deg),Dxy(km),Dz(km)}
Center pole/equ : ITRF93                          {East-longitude positive}
Center radii    : 6378.137, 6378.137, 6356.752 km {Equator_a, b, pole_c}       
Target primary  : Sun
Vis. interferer : MOON (R_eq= 1737.400) km        {source: DE441}
Rel. light bend : Sun                             {source: DE441}
Rel. lght bnd GM: 1.3271E+11 km^3/s^2                                          
Small-body perts: Yes                             {source: SB441-N16}
Atmos refraction: NO (AIRLESS)
RA format       : HMS
Time format     : CAL 
Calendar mode   : Mixed Julian/Gregorian
RTS-only print  : NO       
EOP file        : eop.250321.p250617                                           
EOP coverage    : DATA-BASED 1962-JAN-20 TO 2025-MAR-21. PREDICTS-> 2025-JUN-16
Units conversion: 1 au= 149597870.700 km, c= 299792.458 km/s, 1 day= 86400.0 s 
Table cut-offs 1: Elevation (-90.0deg=NO ),Airmass (>38.000=NO), Daylight (YES)
Table cut-offs 2: Solar elongation (  0.0,180.0=NO ),Local Hour Angle( 0.0=NO )
Table cut-offs 3: RA/DEC angular rate (     0.0=NO )                           
*******************************************************************************
Initial IAU76/J2000 heliocentric ecliptic osculating elements (au, days, deg.):
  EPOCH=  2458288.5 ! 2018-Jun-19.00 (TDB)         Residual RMS= .22282        
   EC= .960925581819226    QR= 3.698978437965829   TP= 2457875.4618278281      
   OM= 293.0370088641419   W=  320.1514802298502   IN= 46.86534913190896       
  Equivalent ICRF heliocentric cartesian coordinates (au, au/d):
   X= 3.123713088662113E+00  Y=-4.022617727101489E+00  Z=-9.776572180429732E-02
  VX= 7.160289219203867E-03 VY=-1.601856640773144E-03 VZ= 7.695430476273978E-03
Asteroid physical parameters (km, seconds, rotational period in hours):        
   GM= n.a.                RAD= n.a.               ROTPER= n.a.                
   H= 13.69                G= .150                 B-V= n.a.                   
                           ALBEDO= n.a.            STYP= n.a.                  
*******************************************************************************
 Date__(UT)__HR:MN     R.A._________(ICRF)_________DEC
******************************************************
$$SOE
 2018-Sep-03 04:45 C   20 21 15.954719 +07 35 39.15738
 2018-Sep-03 04:46 C   20 21 15.937612 +07 35 39.14129
 2018-Sep-03 04:47 C   20 21 15.920504 +07 35 39.12520
 2018-Sep-03 04:48 C   20 21 15.903395 +07 35 39.10910
 2018-Sep-03 04:49 C   20 21 15.886285 +07 35 39.09299
 2018-Sep-03 04:50 C   20 21 15.869173 +07 35 39.07688
 2018-Sep-03 04:51 C   20 21 15.852060 +07 35 39.06077
 2018-Sep-03 04:52 C   20 21 15.834945 +07 35 39.04465
 2018-Sep-03 04:53 C   20 21 15.817829 +07 35 39.02853
 2018-Sep-03 04:54 C   20 21 15.800712 +07 35 39.01240
 2018-Sep-03 04:55 C   20 21 15.783594 +07 35 38.99627
 2018-Sep-03 04:56 C   20 21 15.766474 +07 35 38.98014
 2018-Sep-03 04:57 C   20 21 15.749353 +07 35 38.96400
 2018-Sep-03 04:58 C   20 21 15.732231 +07 35 38.94785
 2018-Sep-03 04:59 N   20 21 15.715107 +07 35 38.93170
 2018-Sep-03 05:00 N   20 21 15.697983 +07 35 38.91555
 2018-Sep-03 05:01 N   20 21 15.680857 +07 35 38.89939
 2018-Sep-03 05:02 N   20 21 15.663729 +07 35 38.88322
 2018-Sep-03 05:03 N   20 21 15.646601 +07 35 38.86706
 2018-Sep-03 05:04 N   20 21 15.629471 +07 35 38.85088
 2018-Sep-03 05:05 N   20 21 15.612340 +07 35 38.83470
 2018-Sep-03 05:06 N   20 21 15.595208 +07 35 38.81852
 2018-Sep-03 05:07 N   20 21 15.578074 +07 35 38.80233
 2018-Sep-03 05:08 N   20 21 15.560940 +07 35 38.78614
 2018-Sep-03 05:09 N   20 21 15.543804 +07 35 38.76995
 2018-Sep-03 05:10 N   20 21 15.526667 +07 35 38.75374
 2018-Sep-03 05:11 N   20 21 15.509529 +07 35 38.73754
 2018-Sep-03 05:12 N   20 21 15.492389 +07 35 38.72133
 2018-Sep-03 05:13 N   20 21 15.475249 +07 35 38.70511
 2018-Sep-03 05:14 N   20 21 15.458107 +07 35 38.68889
 2018-Sep-03 05:15 N   20 21 15.440964 +07 35 38.67267
 2018-Sep-03 05:16 N   20 21 15.423820 +07 35 38.65644
 2018-Sep-03 05:17 N   20 21 15.406675 +07 35 38.64020
 2018-Sep-03 05:18 N   20 21 15.389529 +07 35 38.62396
 2018-Sep-03 05:19 N   20 21 15.372381 +07 35 38.60771
 2018-Sep-03 05:20 N   20 21 15.355233 +07 35 38.59147
 2018-Sep-03 05:21 N   20 21 15.338083 +07 35 38.57521
 2018-Sep-03 05:22 N   20 21 15.320932 +07 35 38.55895
 2018-Sep-03 05:23 N   20 21 15.303781 +07 35 38.54269
 2018-Sep-03 05:24 N   20 21 15.286628 +07 35 38.52642
 2018-Sep-03 05:25 A   20 21 15.269474 +07 35 38.51014
 2018-Sep-03 05:26 A   20 21 15.252319 +07 35 38.49386
 2018-Sep-03 05:27 A   20 21 15.235163 +07 35 38.47758
 2018-Sep-03 05:28 A   20 21 15.218005 +07 35 38.46129
 2018-Sep-03 05:29 A   20 21 15.200847 +07 35 38.44499
 2018-Sep-03 05:30 A   20 21 15.183688 +07 35 38.42869
 2018-Sep-03 05:31 A   20 21 15.166528 +07 35 38.41239
 2018-Sep-03 05:32 A   20 21 15.149366 +07 35 38.39608
 2018-Sep-03 05:33 A   20 21 15.132204 +07 35 38.37977
 2018-Sep-03 05:34 A   20 21 15.115041 +07 35 38.36345
 2018-Sep-03 05:35 A   20 21 15.097877 +07 35 38.34712
 2018-Sep-03 05:36 A   20 21 15.080711 +07 35 38.33079
 2018-Sep-03 05:37 A   20 21 15.063545 +07 35 38.31446
 2018-Sep-03 05:38 A   20 21 15.046378 +07 35 38.29812
 2018-Sep-03 05:39 A   20 21 15.029210 +07 35 38.28177
 2018-Sep-03 05:40 A   20 21 15.012040 +07 35 38.26542
 2018-Sep-03 05:41 A   20 21 14.994870 +07 35 38.24907
 2018-Sep-03 05:42 A   20 21 14.977699 +07 35 38.23271
 2018-Sep-03 05:43 A   20 21 14.960527 +07 35 38.21634
 2018-Sep-03 05:44 A   20 21 14.943355 +07 35 38.19997
 2018-Sep-03 05:45 A   20 21 14.926181 +07 35 38.18359
 2018-Sep-03 05:46 A   20 21 14.909006 +07 35 38.16721
 2018-Sep-03 05:47 A   20 21 14.891830 +07 35 38.15083
 2018-Sep-03 05:48 A   20 21 14.874654 +07 35 38.13443
 2018-Sep-03 05:49 A   20 21 14.857477 +07 35 38.11804
 2018-Sep-03 05:50 A   20 21 14.840298 +07 35 38.10163
 2018-Sep-03 05:51     20 21 14.823119 +07 35 38.08523
 2018-Sep-03 05:52     20 21 14.805939 +07 35 38.06881
 2018-Sep-03 05:53     20 21 14.788758 +07 35 38.05240
 2018-Sep-03 05:54     20 21 14.771577 +07 35 38.03597
 2018-Sep-03 05:55     20 21 14.754394 +07 35 38.01954
 2018-Sep-03 05:56     20 21 14.737211 +07 35 38.00311
 2018-Sep-03 05:57     20 21 14.720027 +07 35 37.98667
 2018-Sep-03 05:58     20 21 14.702842 +07 35 37.97023
 2018-Sep-03 05:59     20 21 14.685656 +07 35 37.95378
 2018-Sep-03 06:00     20 21 14.668470 +07 35 37.93732
 2018-Sep-03 06:01     20 21 14.651283 +07 35 37.92086
 2018-Sep-03 06:02     20 21 14.634094 +07 35 37.90440
 2018-Sep-03 06:03     20 21 14.616906 +07 35 37.88793
 2018-Sep-03 06:04     20 21 14.599716 +07 35 37.87145
 2018-Sep-03 06:05     20 21 14.582526 +07 35 37.85497
 2018-Sep-03 06:06     20 21 14.565335 +07 35 37.83848
 2018-Sep-03 06:07     20 21 14.548143 +07 35 37.82199
 2018-Sep-03 06:08     20 21 14.530951 +07 35 37.80549
 2018-Sep-03 06:09     20 21 14.513757 +07 35 37.78899
 2018-Sep-03 06:10     20 21 14.496564 +07 35 37.77248
 2018-Sep-03 06:11     20 21 14.479369 +07 35 37.75596
 2018-Sep-03 06:12     20 21 14.462174 +07 35 37.73944
 2018-Sep-03 06:13     20 21 14.444978 +07 35 37.72292
 2018-Sep-03 06:14     20 21 14.427781 +07 35 37.70639
 2018-Sep-03 06:15     20 21 14.410584 +07 35 37.68985
 2018-Sep-03 06:16     20 21 14.393386 +07 35 37.67331
 2018-Sep-03 06:17     20 21 14.376188 +07 35 37.65676
 2018-Sep-03 06:18     20 21 14.358989 +07 35 37.64021
 2018-Sep-03 06:19     20 21 14.341789 +07 35 37.62365
 2018-Sep-03 06:20     20 21 14.324589 +07 35 37.60709
 2018-Sep-03 06:21     20 21 14.307388 +07 35 37.59052
 2018-Sep-03 06:22     20 21 14.290186 +07 35 37.57394
 2018-Sep-03 06:23     20 21 14.272984 +07 35 37.55736
 2018-Sep-03 06:24     20 21 14.255781 +07 35 37.54078
 2018-Sep-03 06:25     20 21 14.238578 +07 35 37.52418
 2018-Sep-03 06:26     20 21 14.221374 +07 35 37.50759
 2018-Sep-03 06:27     20 21 14.204170 +07 35 37.49098
 2018-Sep-03 06:28     20 21 14.186965 +07 35 37.47438
 2018-Sep-03 06:29     20 21 14.169759 +07 35 37.45776
 2018-Sep-03 06:30     20 21 14.152554 +07 35 37.44114
 2018-Sep-03 06:31     20 21 14.135347 +07 35 37.42452
 2018-Sep-03 06:32     20 21 14.118140 +07 35 37.40789
 2018-Sep-03 06:33     20 21 14.100933 +07 35 37.39125
 2018-Sep-03 06:34     20 21 14.083725 +07 35 37.37461
 2018-Sep-03 06:35     20 21 14.066516 +07 35 37.35796
 2018-Sep-03 06:36     20 21 14.049308 +07 35 37.34131
 2018-Sep-03 06:37     20 21 14.032098 +07 35 37.32465
 2018-Sep-03 06:38     20 21 14.014889 +07 35 37.30799
 2018-Sep-03 06:39     20 21 13.997678 +07 35 37.29132
 2018-Sep-03 06:40     20 21 13.980468 +07 35 37.27464
 2018-Sep-03 06:41     20 21 13.963257 +07 35 37.25796
 2018-Sep-03 06:42     20 21 13.946045 +07 35 37.24127
 2018-Sep-03 06:43     20 21 13.928834 +07 35 37.22458
 2018-Sep-03 06:44     20 21 13.911621 +07 35 37.20788
 2018-Sep-03 06:45     20 21 13.894409 +07 35 37.19118
 2018-Sep-03 06:46     20 21 13.877196 +07 35 37.17447
 2018-Sep-03 06:47     20 21 13.859983 +07 35 37.15775
